OBJECT_NAME,OBJECT_ID,EPOCH,MEAN_MOTION,ECCENTRICITY,INCLINATION,RA_OF_ASC_NODE,ARG_OF_PERICENTER,MEAN_ANOMALY,EPHEMERIS_TYPE,CLASSIFICATION_TYPE,NORAD_CAT_ID,ELEMENT_SET_NO,REV_AT_EPOCH,BSTAR,MEAN_MOTION_DOT,MEAN_MOTION_DDOT
SAUDISAT 1C (SO-50),2002-058C,2026-06-09T04:45:27.885024,14.83029182,.0075439,64.5504,153.7028,263.9457,95.3049,0,U,27607,999,26327,.12675E-3,.928E-5,0
SAUDISAT 2,2004-025F,2026-06-08T23:48:55.867392,14.56678993,.0023954,98.5506,159.7625,324.3994,35.5604,0,U,28371,999,16455,.64886E-4,.241E-5,0
SAUDISAT 3,2007-012B,2026-06-09T02:21:42.998112,14.71420862,.0013326,98.1453,110.4939,251.9162,108.0593,0,U,31118,999,2655,.4745E-4,.243E-5,0
PISAT,2016-059B,2026-06-09T00:55:01.996320,14.68969159,.0027806,97.8178,160.8413,229.6933,130.1843,0,U,41784,999,51854,.14654E-3,.816E-5,0
FLYING LAPTOP,2017-042G,2026-06-09T04:28:30.643392,15.01092033,.001915,97.4658,316.0298,147.7606,212.4793,0,U,42831,999,48525,.23584E-3,.2971E-4,0
SALSAT,2020-068K,2026-06-08T21:41:10.423104,15.29680035,.0008807,97.8856,162.4647,341.8369,18.2554,0,U,46495,999,31409,.27004E-3,.769E-4,0
