SAUDISAT 1C (SO-50)     
1 27607U 02058C   26160.19823941  .00000928  00000+0  12675-3 0  9991
2 27607  64.5504 153.7028 0075439 263.9457  95.3049 14.83029182263276
SAUDISAT 2              
1 28371U 04025F   26159.99231328  .00000241  00000+0  64886-4 0  9994
2 28371  98.5506 159.7625 0023954 324.3994  35.5604 14.56678993164550
SAUDISAT 3              
1 31118U 07012B   26160.09841433  .00000243  00000+0  47450-4 0  9993
2 31118  98.1453 110.4939 0013326 251.9162 108.0593 14.71420862 26553
PISAT                   
1 41784U 16059B   26160.03821755  .00000816  00000+0  14654-3 0  9998
2 41784  97.8178 160.8413 0027806 229.6933 130.1843 14.68969159518547
FLYING LAPTOP           
1 42831U 17042G   26160.18646578  .00002971  00000+0  23584-3 0  9995
2 42831  97.4658 316.0298 0019150 147.7606 212.4793 15.01092033485251
SALSAT                  
1 46495U 20068K   26159.90359286  .00007690  00000+0  27004-3 0  9996
2 46495  97.8856 162.4647 0008807 341.8369  18.2554 15.29680035314091
